{
  "type": "FeatureCollection",
  "features": [
    {
      "type": "Feature",
      "properties": {
        "norad_id": 29945,
        "name": "FENGYUN 1C DEB",
        "group": "fengyun-1c-debris",
        "lat": -80.97804416883608,
        "lon": 99.6455213769254,
        "alt_km": 869.1384810824702,
        "timestamp": "2025-12-25T07:41:09.995667+00:00",
        "meta_object_name": "FENGYUN 1C DEB",
        "meta_object_id": "1999-025JT",
        "meta_epoch": "2025-12-24T19:15:53.451072",
        "meta_mean_motion": 14.05578796,
        "meta_eccentricity": 0.00303647,
        "meta_inclination": 98.7911,
        "meta_ra_of_asc_node": 22.0817,
        "meta_arg_of_pericenter": 328.3077,
        "meta_mean_anomaly": 206.5856,
        "meta_ephemeris_type": 0,
        "meta_classification_type": "U",
        "meta_norad_cat_id": 29945,
        "meta_element_set_no": 999,
        "meta_rev_at_epoch": 97147,
        "meta_bstar": 0.00011516328,
        "meta_mean_motion_dot": 1.45e-06,
        "meta_mean_motion_ddot": 0,
        "tle_line1": "1 29945U 99025JT  25358.80270198  .00000145  00000+0  11516-3 0  9998",
        "tle_line2": "2 29945  98.7911  22.0817 0030364 328.3077 206.5856 14.05578796971474"
      },
      "geometry": {
        "type": "Point",
        "coordinates": [
          99.6455213769254,
          -80.97804416883608
        ]
      }
    },
    {
      "type": "Feature",
      "properties": {
        "norad_id": 29946,
        "name": "FENGYUN 1C DEB",
        "group": "fengyun-1c-debris",
        "lat": 55.12797437215505,
        "lon": -21.591718550893372,
        "alt_km": 877.8523397625213,
        "timestamp": "2025-12-25T07:41:09.995677+00:00",
        "meta_object_name": "FENGYUN 1C DEB",
        "meta_object_id": "1999-025JU",
        "meta_epoch": "2025-12-24T21:29:11.137920",
        "meta_mean_motion": 14.08265793,
        "meta_eccentricity": 0.00801583,
        "meta_inclination": 98.7807,
        "meta_ra_of_asc_node": 350.8088,
        "meta_arg_of_pericenter": 309.0615,
        "meta_mean_anomaly": 112.8595,
        "meta_ephemeris_type": 0,
        "meta_classification_type": "U",
        "meta_norad_cat_id": 29946,
        "meta_element_set_no": 999,
        "meta_rev_at_epoch": 97218,
        "meta_bstar": 0.0002048627,
        "meta_mean_motion_dot": 3.17e-06,
        "meta_mean_motion_ddot": 0,
        "tle_line1": "1 29946U 99025JU  25358.89526780  .00000317  00000+0  20486-3 0  9996",
        "tle_line2": "2 29946  98.7807 350.8088 0080158 309.0615 112.8595 14.08265793972182"
      },
      "geometry": {
        "type": "Point",
        "coordinates": [
          -21.591718550893372,
          55.12797437215505
        ]
      }
    },
    {
      "type": "Feature",
      "properties": {
        "norad_id": 29947,
        "name": "FENGYUN 1C DEB",
        "group": "fengyun-1c-debris",
        "lat": 18.413161268743533,
        "lon": -147.52456986991936,
        "alt_km": 875.5543657014505,
        "timestamp": "2025-12-25T07:41:09.995687+00:00",
        "meta_object_name": "FENGYUN 1C DEB",
        "meta_object_id": "1999-025JV",
        "meta_epoch": "2025-12-24T16:03:31.998240",
        "meta_mean_motion": 14.03082263,
        "meta_eccentricity": 0.00410627,
        "meta_inclination": 98.8368,
        "meta_ra_of_asc_node": 28.8747,
        "meta_arg_of_pericenter": 88.0166,
        "meta_mean_anomaly": 25.6543,
        "meta_ephemeris_type": 0,
        "meta_classification_type": "U",
        "meta_norad_cat_id": 29947,
        "meta_element_set_no": 999,
        "meta_rev_at_epoch": 96917,
        "meta_bstar": 0.00021499776,
        "meta_mean_motion_dot": 2.94e-06,
        "meta_mean_motion_ddot": 0,
        "tle_line1": "1 29947U 99025JV  25358.66912035  .00000294  00000+0  21500-3 0  9996",
        "tle_line2": "2 29947  98.8368  28.8747 0041062  88.0166  25.6543 14.03082263969179"
      },
      "geometry": {
        "type": "Point",
        "coordinates": [
          -147.52456986991936,
          18.413161268743533
        ]
      }
    },
    {
      "type": "Feature",
      "properties": {
        "norad_id": 29948,
        "name": "FENGYUN 1C DEB",
        "group": "fengyun-1c-debris",
        "lat": 11.97240037873503,
        "lon": 167.0669637827492,
        "alt_km": 820.7649656771846,
        "timestamp": "2025-12-25T07:41:09.995749+00:00",
        "meta_object_name": "FENGYUN 1C DEB",
        "meta_object_id": "1999-025JW",
        "meta_epoch": "2025-12-24T18:04:10.771680",
        "meta_mean_motion": 14.06197581,
        "meta_eccentricity": 0.00841542,
        "meta_inclination": 98.8252,
        "meta_ra_of_asc_node": 344.6261,
        "meta_arg_of_pericenter": 199.5918,
        "meta_mean_anomaly": 338.1397,
        "meta_ephemeris_type": 0,
        "meta_classification_type": "U",
        "meta_norad_cat_id": 29948,
        "meta_element_set_no": 999,
        "meta_rev_at_epoch": 97145,
        "meta_bstar": -2.2148702e-05,
        "meta_mean_motion_dot": -8.1e-07,
        "meta_mean_motion_ddot": 0,
        "tle_line1": "1 29948U 99025JW  25358.75290245 -.00000081  00000+0 -22149-4 0  9996",
        "tle_line2": "2 29948  98.8252 344.6261 0084154 199.5918 338.1397 14.06197581971450"
      },
      "geometry": {
        "type": "Point",
        "coordinates": [
          167.0669637827492,
          11.97240037873503
        ]
      }
    },
    {
      "type": "Feature",
      "properties": {
        "norad_id": 29949,
        "name": "FENGYUN 1C DEB",
        "group": "fengyun-1c-debris",
        "lat": 29.83535726332989,
        "lon": -160.31465433664937,
        "alt_km": 876.7319623041176,
        "timestamp": "2025-12-25T07:41:09.995762+00:00",
        "meta_object_name": "FENGYUN 1C DEB",
        "meta_object_id": "1999-025JX",
        "meta_epoch": "2025-12-24T22:48:20.697120",
        "meta_mean_motion": 14.06828214,
        "meta_eccentricity": 0.00230266,
        "meta_inclination": 98.7616,
        "meta_ra_of_asc_node": 14.2526,
        "meta_arg_of_pericenter": 269.72,
        "meta_mean_anomaly": 167.2606,
        "meta_ephemeris_type": 0,
        "meta_classification_type": "U",
        "meta_norad_cat_id": 29949,
        "meta_element_set_no": 999,
        "meta_rev_at_epoch": 97279,
        "meta_bstar": -4.8465018e-05,
        "meta_mean_motion_dot": -1.24e-06,
        "meta_mean_motion_ddot": 0,
        "tle_line1": "1 29949U 99025JX  25358.95023955 -.00000124  00000+0 -48465-4 0  9998",
        "tle_line2": "2 29949  98.7616  14.2526 0023026 269.7200 167.2606 14.06828214972799"
      },
      "geometry": {
        "type": "Point",
        "coordinates": [
          -160.31465433664937,
          29.83535726332989
        ]
      }
    },
    {
      "type": "Feature",
      "properties": {
        "norad_id": 29950,
        "name": "FENGYUN 1C DEB",
        "group": "fengyun-1c-debris",
        "lat": 35.57518447246922,
        "lon": -143.63782652492606,
        "alt_km": 844.5074369102394,
        "timestamp": "2025-12-25T07:41:09.995773+00:00",
        "meta_object_name": "FENGYUN 1C DEB",
        "meta_object_id": "1999-025JY",
        "meta_epoch": "2025-12-24T16:12:44.066592",
        "meta_mean_motion": 14.10339443,
        "meta_eccentricity": 0.00327727,
        "meta_inclination": 98.7397,
        "meta_ra_of_asc_node": 29.4186,
        "meta_arg_of_pericenter": 207.6071,
        "meta_mean_anomaly": 264.8907,
        "meta_ephemeris_type": 0,
        "meta_classification_type": "U",
        "meta_norad_cat_id": 29950,
        "meta_element_set_no": 999,
        "meta_rev_at_epoch": 97459,
        "meta_bstar": 0.00014022135,
        "meta_mean_motion_dot": 2.07e-06,
        "meta_mean_motion_ddot": 0,
        "tle_line1": "1 29950U 99025JY  25358.67551003  .00000207  00000+0  14022-3 0  9990",
        "tle_line2": "2 29950  98.7397  29.4186 0032772 207.6071 264.8907 14.10339443974596"
      },
      "geometry": {
        "type": "Point",
        "coordinates": [
          -143.63782652492606,
          35.57518447246922
        ]
      }
    },
    {
      "type": "Feature",
      "properties": {
        "norad_id": 29953,
        "name": "FENGYUN 1C DEB",
        "group": "fengyun-1c-debris",
        "lat": 81.01490231826264,
        "lon": -109.75366777532442,
        "alt_km": 978.002786976529,
        "timestamp": "2025-12-25T07:41:09.995783+00:00",
        "meta_object_name": "FENGYUN 1C DEB",
        "meta_object_id": "1999-025KB",
        "meta_epoch": "2025-12-24T22:52:52.705056",
        "meta_mean_motion": 13.90859812,
        "meta_eccentricity": 0.01056668,
        "meta_inclination": 98.9387,
        "meta_ra_of_asc_node": 345.4103,
        "meta_arg_of_pericenter": 233.07,
        "meta_mean_anomaly": 182.6149,
        "meta_ephemeris_type": 0,
        "meta_classification_type": "U",
        "meta_norad_cat_id": 29953,
        "meta_element_set_no": 999,
        "meta_rev_at_epoch": 96032,
        "meta_bstar": 0.00035589343,
        "meta_mean_motion_dot": 4.23e-06,
        "meta_mean_motion_ddot": 0,
        "tle_line1": "1 29953U 99025KB  25358.95338779  .00000423  00000+0  35589-3 0  9998",
        "tle_line2": "2 29953  98.9387 345.4103 0105666 233.0700 182.6149 13.90859812960320"
      },
      "geometry": {
        "type": "Point",
        "coordinates": [
          -109.75366777532442,
          81.01490231826264
        ]
      }
    }
  ]
}